[Satellite]
VERSION=1.1
NAME=GOES 1 [-]
NICKNAME=GOES 1 [-]
TLE1=1 08366U 75100A   15050.40314506 -.00000228  00000-0  00000+0 0  9992
TLE2=2 08366  13.1807 328.2634 0003624 223.0862  17.4155  1.00246406143735
